SL-14 R/B               
1 16496U 86006B   26071.61616993  .00000847  00000+0  87590-4 0  9994
2 16496  82.5236 256.9821 0075060 262.8934  96.3743 14.86819773149649
COSMOS 1743             
1 16719U 86034A   26071.98042695  .00039456  00000+0  50906-3 0  9993
2 16719  82.5291  70.3764 0001511 259.9622 100.1464 15.58811671180764
SL-14 R/B               
1 16792U 86046B   26071.97301139  .00000562  00000+0  61966-4 0  9992
2 16792  82.4783  77.0784 0022193 213.9865 145.9931 14.85593958126898
SL-14 R/B               
1 16882U 86055B   26071.64178877  .00000506  00000+0  55473-4 0  9991
2 16882  82.5196 123.8994 0017941 326.4064 148.8115 14.85645631119801
AJISAI (EGS)            
1 16908U 86061A   26071.99873516 -.00000099  00000+0 -14041-4 0  9992
2 16908  50.0081  83.1718 0011282 295.5553  91.8994 12.44515641468412
SL-14 R/B               
1 17567U 87024B   26072.00521402  .00000541  00000+0  58814-4 0  9997
2 17567  82.5244  89.6466 0016758 247.9637 111.9799 14.86135556 88622
COSMOS 1833             
1 17589U 87027A   26071.76265248 -.00000197  00000+0 -79660-4 0  9990
2 17589  70.9217 319.5609 0024119 210.2000 149.7732 14.13054015 10753
SL-16 R/B               
1 17590U 87027B   26071.93917242  .00000047  00000+0  47083-4 0  9995
2 17590  70.9996 269.6471 0003229 135.5963 224.5420 14.17166601 15803
SL-14 R/B               
1 17912U 87038B   26071.66506960  .00000497  00000+0  54806-4 0  9996
2 17912  82.4995 294.0046 0019915 150.9335 209.2994 14.85372207 79678
COSMOS 1844             
1 17973U 87041A   26072.00670606 -.00000123  00000+0 -38469-4 0  9990
2 17973  70.9002  27.1785 0030194  12.9459 347.2431 14.14551605  4059
SL-14 R/B               
1 18153U 87055B   26071.91087066  .00000611  00000+0  67502-4 0  9997
2 18153  82.5030 345.9965 0020882   7.3494 352.8024 14.85633643 70415
COSMOS 1867             
1 18187U 87060A   26071.72476343 -.00000026  00000+0  27854-4 0  9996
2 18187  65.0108 298.2061 0014533 278.8556  81.0883 14.31503616 20372
SL-14 R/B               
1 18749U 88001B   26071.77169455  .00000700  00000+0  78105-4 0  9997
2 18749  82.5157 192.4619 0017016 224.8310 135.1533 14.85532281 42484
COSMOS 1933             
1 18958U 88020A   26071.55868117  .00005631  00000+0  27542-3 0  9993
2 18958  82.5104 248.0725 0004156 172.1951 187.9349 15.18014469 50660
SL-3 R/B                
1 19046U 88032B   26071.95844656  .00006349  00000+0  29610-3 0  9996
2 19046  97.5195  55.1979 0024687 219.4286 140.5153 15.19952216 52606
SL-16 R/B               
1 19120U 88039B   26072.01020176  .00000148  00000+0  92455-4 0  9996
2 19120  71.0138  61.5257 0022959 329.5236  30.4553 14.19616088958857
COSMOS 1953             
1 19210U 88050A   26071.70241044  .00008873  00000+0  31725-3 0  9998
2 19210  82.5103 155.2177 0012542 113.1251 247.1312 15.28582954 38246
