[{"OBJECT_NAME":"SL-14 R/B","OBJECT_ID":"1986-006B","EPOCH":"2026-03-12T14:47:17.081952","MEAN_MOTION":14.86819773,"ECCENTRICITY":0.007506,"INCLINATION":82.5236,"RA_OF_ASC_NODE":256.9821,"ARG_OF_PERICENTER":262.8934,"MEAN_ANOMALY":96.3743,"EPHEMERIS_TYPE":0,"CLASSIFICATION_TYPE":"U","NORAD_CAT_ID":16496,"ELEMENT_SET_NO":999,"REV_AT_EPOCH":14964,"BSTAR":8.75905e-5,"MEAN_MOTION_DOT":8.47e-6,"MEAN_MOTION_DDOT":0},{"OBJECT_NAME":"COSMOS 1743","OBJECT_ID":"1986-034A","EPOCH":"2026-03-12T23:31:48.888480","MEAN_MOTION":15.58811671,"ECCENTRICITY":0.0001511,"INCLINATION":82.5291,"RA_OF_ASC_NODE":70.3764,"ARG_OF_PERICENTER":259.9622,"MEAN_ANOMALY":100.1464,"EPHEMERIS_TYPE":0,"CLASSIFICATION_TYPE":"U","NORAD_CAT_ID":16719,"ELEMENT_SET_NO":999,"REV_AT_EPOCH":18076,"BSTAR":0.00050906395,"MEAN_MOTION_DOT":0.00039456,"MEAN_MOTION_DDOT":0},{"OBJECT_NAME":"SL-14 R/B","OBJECT_ID":"1986-046B","EPOCH":"2026-03-12T23:21:08.184096","MEAN_MOTION":14.85593958,"ECCENTRICITY":0.00221933,"INCLINATION":82.4783,"RA_OF_ASC_NODE":77.0784,"ARG_OF_PERICENTER":213.9865,"MEAN_ANOMALY":145.9931,"EPHEMERIS_TYPE":0,"CLASSIFICATION_TYPE":"U","NORAD_CAT_ID":16792,"ELEMENT_SET_NO":999,"REV_AT_EPOCH":12689,"BSTAR":6.1966489e-5,"MEAN_MOTION_DOT":5.62e-6,"MEAN_MOTION_DDOT":0},{"OBJECT_NAME":"SL-14 R/B","OBJECT_ID":"1986-055B","EPOCH":"2026-03-12T15:24:10.549728","MEAN_MOTION":14.85645631,"ECCENTRICITY":0.0017941,"INCLINATION":82.5196,"RA_OF_ASC_NODE":123.8994,"ARG_OF_PERICENTER":326.4064,"MEAN_ANOMALY":148.8115,"EPHEMERIS_TYPE":0,"CLASSIFICATION_TYPE":"U","NORAD_CAT_ID":16882,"ELEMENT_SET_NO":999,"REV_AT_EPOCH":11980,"BSTAR":5.5473289e-5,"MEAN_MOTION_DOT":5.06e-6,"MEAN_MOTION_DDOT":0},{"OBJECT_NAME":"AJISAI (EGS)","OBJECT_ID":"1986-061A","EPOCH":"2026-03-12T23:58:10.717824","MEAN_MOTION":12.44515641,"ECCENTRICITY":0.00112823,"INCLINATION":50.0081,"RA_OF_ASC_NODE":83.1718,"ARG_OF_PERICENTER":295.5553,"MEAN_ANOMALY":91.8994,"EPHEMERIS_TYPE":0,"CLASSIFICATION_TYPE":"U","NORAD_CAT_ID":16908,"ELEMENT_SET_NO":999,"REV_AT_EPOCH":46841,"BSTAR":-1.4040651e-5,"MEAN_MOTION_DOT":-9.9e-7,"MEAN_MOTION_DDOT":0},{"OBJECT_NAME":"SL-14 R/B","OBJECT_ID":"1987-024B","EPOCH":"2026-03-13T00:07:30.491328","MEAN_MOTION":14.86135556,"ECCENTRICITY":0.0016758,"INCLINATION":82.5244,"RA_OF_ASC_NODE":89.6466,"ARG_OF_PERICENTER":247.9637,"MEAN_ANOMALY":111.9799,"EPHEMERIS_TYPE":0,"CLASSIFICATION_TYPE":"U","NORAD_CAT_ID":17567,"ELEMENT_SET_NO":999,"REV_AT_EPOCH":8862,"BSTAR":5.8814e-5,"MEAN_MOTION_DOT":5.41e-6,"MEAN_MOTION_DDOT":0},{"OBJECT_NAME":"COSMOS 1833","OBJECT_ID":"1987-027A","EPOCH":"2026-03-12T18:18:13.174272","MEAN_MOTION":14.13054015,"ECCENTRICITY":0.00241197,"INCLINATION":70.9217,"RA_OF_ASC_NODE":319.5609,"ARG_OF_PERICENTER":210.2,"MEAN_ANOMALY":149.7732,"EPHEMERIS_TYPE":0,"CLASSIFICATION_TYPE":"U","NORAD_CAT_ID":17589,"ELEMENT_SET_NO":999,"REV_AT_EPOCH":1075,"BSTAR":-7.9659986e-5,"MEAN_MOTION_DOT":-1.97e-6,"MEAN_MOTION_DDOT":0},{"OBJECT_NAME":"SL-16 R/B","OBJECT_ID":"1987-027B","EPOCH":"2026-03-12T22:32:24.497088","MEAN_MOTION":14.17166601,"ECCENTRICITY":0.00032294,"INCLINATION":70.9996,"RA_OF_ASC_NODE":269.6471,"ARG_OF_PERICENTER":135.5963,"MEAN_ANOMALY":224.542,"EPHEMERIS_TYPE":0,"CLASSIFICATION_TYPE":"U","NORAD_CAT_ID":17590,"ELEMENT_SET_NO":999,"REV_AT_EPOCH":1580,"BSTAR":4.7083194e-5,"MEAN_MOTION_DOT":4.7e-7,"MEAN_MOTION_DDOT":0},{"OBJECT_NAME":"SL-14 R/B","OBJECT_ID":"1987-038B","EPOCH":"2026-03-12T15:57:42.013440","MEAN_MOTION":14.85372207,"ECCENTRICITY":0.0019915,"INCLINATION":82.4995,"RA_OF_ASC_NODE":294.0046,"ARG_OF_PERICENTER":150.9335,"MEAN_ANOMALY":209.2994,"EPHEMERIS_TYPE":0,"CLASSIFICATION_TYPE":"U","NORAD_CAT_ID":17912,"ELEMENT_SET_NO":999,"REV_AT_EPOCH":7967,"BSTAR":5.4806247e-5,"MEAN_MOTION_DOT":4.97e-6,"MEAN_MOTION_DDOT":0},{"OBJECT_NAME":"COSMOS 1844","OBJECT_ID":"1987-041A","EPOCH":"2026-03-13T00:09:39.403584","MEAN_MOTION":14.14551605,"ECCENTRICITY":0.0030194,"INCLINATION":70.9002,"RA_OF_ASC_NODE":27.1785,"ARG_OF_PERICENTER":12.9459,"MEAN_ANOMALY":347.2431,"EPHEMERIS_TYPE":0,"CLASSIFICATION_TYPE":"U","NORAD_CAT_ID":17973,"ELEMENT_SET_NO":999,"REV_AT_EPOCH":405,"BSTAR":-3.8469e-5,"MEAN_MOTION_DOT":-1.23e-6,"MEAN_MOTION_DDOT":0},{"OBJECT_NAME":"SL-14 R/B","OBJECT_ID":"1987-055B","EPOCH":"2026-03-12T21:51:39.225024","MEAN_MOTION":14.85633643,"ECCENTRICITY":0.00208822,"INCLINATION":82.503,"RA_OF_ASC_NODE":345.9965,"ARG_OF_PERICENTER":7.3494,"MEAN_ANOMALY":352.8024,"EPHEMERIS_TYPE":0,"CLASSIFICATION_TYPE":"U","NORAD_CAT_ID":18153,"ELEMENT_SET_NO":999,"REV_AT_EPOCH":7041,"BSTAR":6.7502313e-5,"MEAN_MOTION_DOT":6.11e-6,"MEAN_MOTION_DDOT":0},{"OBJECT_NAME":"COSMOS 1867","OBJECT_ID":"1987-060A","EPOCH":"2026-03-12T17:23:39.560352","MEAN_MOTION":14.31503616,"ECCENTRICITY":0.00145331,"INCLINATION":65.0108,"RA_OF_ASC_NODE":298.2061,"ARG_OF_PERICENTER":278.8556,"MEAN_ANOMALY":81.0883,"EPHEMERIS_TYPE":0,"CLASSIFICATION_TYPE":"U","NORAD_CAT_ID":18187,"ELEMENT_SET_NO":999,"REV_AT_EPOCH":2037,"BSTAR":2.7853816e-5,"MEAN_MOTION_DOT":-2.6e-7,"MEAN_MOTION_DDOT":0},{"OBJECT_NAME":"SL-14 R/B","OBJECT_ID":"1988-001B","EPOCH":"2026-03-12T18:31:14.409120","MEAN_MOTION":14.85532281,"ECCENTRICITY":0.00170167,"INCLINATION":82.5157,"RA_OF_ASC_NODE":192.4619,"ARG_OF_PERICENTER":224.831,"MEAN_ANOMALY":135.1533,"EPHEMERIS_TYPE":0,"CLASSIFICATION_TYPE":"U","NORAD_CAT_ID":18749,"ELEMENT_SET_NO":999,"REV_AT_EPOCH":4248,"BSTAR":7.8105038e-5,"MEAN_MOTION_DOT":7.0e-6,"MEAN_MOTION_DDOT":0},{"OBJECT_NAME":"COSMOS 1933","OBJECT_ID":"1988-020A","EPOCH":"2026-03-12T13:24:30.053088","MEAN_MOTION":15.18014469,"ECCENTRICITY":0.0004156,"INCLINATION":82.5104,"RA_OF_ASC_NODE":248.0725,"ARG_OF_PERICENTER":172.1951,"MEAN_ANOMALY":187.9349,"EPHEMERIS_TYPE":0,"CLASSIFICATION_TYPE":"U","NORAD_CAT_ID":18958,"ELEMENT_SET_NO":999,"REV_AT_EPOCH":5066,"BSTAR":0.00027542,"MEAN_MOTION_DOT":5.631e-5,"MEAN_MOTION_DDOT":0},{"OBJECT_NAME":"SL-3 R/B","OBJECT_ID":"1988-032B","EPOCH":"2026-03-12T23:00:09.782784","MEAN_MOTION":15.19952216,"ECCENTRICITY":0.0024687,"INCLINATION":97.5195,"RA_OF_ASC_NODE":55.1979,"ARG_OF_PERICENTER":219.4286,"MEAN_ANOMALY":140.5153,"EPHEMERIS_TYPE":0,"CLASSIFICATION_TYPE":"U","NORAD_CAT_ID":19046,"ELEMENT_SET_NO":999,"REV_AT_EPOCH":5260,"BSTAR":0.0002961,"MEAN_MOTION_DOT":6.349e-5,"MEAN_MOTION_DDOT":0},{"OBJECT_NAME":"SL-16 R/B","OBJECT_ID":"1988-039B","EPOCH":"2026-03-13T00:14:41.432064","MEAN_MOTION":14.19616088,"ECCENTRICITY":0.0022959,"INCLINATION":71.0138,"RA_OF_ASC_NODE":61.5257,"ARG_OF_PERICENTER":329.5236,"MEAN_ANOMALY":30.4553,"EPHEMERIS_TYPE":0,"CLASSIFICATION_TYPE":"U","NORAD_CAT_ID":19120,"ELEMENT_SET_NO":999,"REV_AT_EPOCH":95885,"BSTAR":9.2455e-5,"MEAN_MOTION_DOT":1.48e-6,"MEAN_MOTION_DDOT":0},{"OBJECT_NAME":"COSMOS 1953","OBJECT_ID":"1988-050A","EPOCH":"2026-03-12T16:51:28.262016","MEAN_MOTION":15.28582954,"ECCENTRICITY":0.0012542,"INCLINATION":82.5103,"RA_OF_ASC_NODE":155.2177,"ARG_OF_PERICENTER":113.1251,"MEAN_ANOMALY":247.1312,"EPHEMERIS_TYPE":0,"CLASSIFICATION_TYPE":"U","NORAD_CAT_ID":19210,"ELEMENT_SET_NO":999,"REV_AT_EPOCH":3824,"BSTAR":0.00031724818,"MEAN_MOTION_DOT":8.873e-5,"MEAN_MOTION_DDOT":0}]
